{
  "norad_id": 58155,
  "name": "STARLINK-30804",
  "history": [
    {
      "epoch": "2026-03-28T19:27:12.093696",
      "apogee_km": 476.22821889106217,
      "perigee_km": 474.2268993725047,
      "latitude_deg": 52.814039461262354,
      "longitude_deg": 73.31343744019978,
      "semi_major_axis_km": 6853.364559131784,
      "eccentricity": 0.00014601,
      "inclination_deg": 53.1606,
      "raan_deg": 131.0213,
      "arg_perigee_deg": 107.3597,
      "mean_anomaly_deg": 252.7564,
      "mean_motion_rev_day": 15.30195817
    }
  ]
}