{"fetched_at":"2026-03-29T16:36:15Z","count":15609,"tles":[{"name":"STARLINK-30804","line1":"1 58155U 23166F   26087.81055664 -.00002054  00000+0 -57232-4 0  9995","line2":"2 58155  53.1606 131.0213 0001460 107.3597 252.7564 15.30195817136103","category":"Starlink"}]}